{"type": "FeatureCollection", "features": [ {"type": "Feature", "properties": {"norad_id": 41556, "name": "ZIYUAN 3-02 (ZY 3-02)", "group": "resource", "lat": 9.654653244050387, "lon": -105.97845498103058, "alt_km": 497.1993315396194, "timestamp": "2025-12-24T18:55:55.714479+00:00", "meta": {"OBJECT_NAME": "ZIYUAN 3-02 (ZY 3-02)", "OBJECT_ID": "2016-033A", "EPOCH": "2025-12-24T07:08:06.707904", "MEAN_MOTION": 15.21214583, "ECCENTRICITY": 0.00113765, "INCLINATION": 97.4026, "RA_OF_ASC_NODE": 72.271, "ARG_OF_PERICENTER": 203.057, "MEAN_ANOMALY": 157.0156, "EPHEMERIS_TYPE": 0, "CLASSIFICATION_TYPE": "U", "NORAD_CAT_ID": 41556, "ELEMENT_SET_NO": 999, "REV_AT_EPOCH": 53139, "BSTAR": 0.0003784675, "MEAN_MOTION_DOT": 8.393e-05, "MEAN_MOTION_DDOT": 0}, "tle": {"line1": "1 41556U 16033A   25358.29729986  .00008393  00000+0  37847-3 0  9993", "line2": "2 41556  97.4026  72.2710 0011376 203.0570 157.0156 15.21214583531393"}}, "geometry": {"type": "Point", "coordinates": [-105.97845498103058, 9.654653244050387]}}, {"type": "Feature", "properties": {"norad_id": 41599, "name": "CARTOSAT-2C", "group": "resource", "lat": 24.786186907568137, "lon": 52.43836987561678, "alt_km": 500.1640267677258, "timestamp": "2025-12-24T18:55:55.714489+00:00", "meta": {"OBJECT_NAME": "CARTOSAT-2C", "OBJECT_ID": "2016-040A", "EPOCH": "2025-12-24T07:45:26.144064", "MEAN_MOTION": 15.1921719, "ECCENTRICITY": 0.0010767, "INCLINATION": 97.4744, "RA_OF_ASC_NODE": 55.4534, "ARG_OF_PERICENTER": 26.5811, "MEAN_ANOMALY": 333.5973, "EPHEMERIS_TYPE": 0, "CLASSIFICATION_TYPE": "U", "NORAD_CAT_ID": 41599, "ELEMENT_SET_NO": 999, "REV_AT_EPOCH": 52716, "BSTAR": 0.00025211401, "MEAN_MOTION_DOT": 5.248e-05, "MEAN_MOTION_DDOT": 0}, "tle": {"line1": "1 41599U 16040A   25358.32321926  .00005248  00000+0  25211-3 0  9992", "line2": "2 41599  97.4744  55.4534 0010767  26.5811 333.5973 15.19217190527165"}}, "geometry": {"type": "Point", "coordinates": [52.43836987561678, 24.786186907568137]}}, {"type": "Feature", "properties": {"norad_id": 41601, "name": "SKYSAT-C1", "group": "resource", "lat": -55.50445975067389, "lon": 45.39366606421834, "alt_km": 473.89909862081004, "timestamp": "2025-12-24T18:55:55.714500+00:00", "meta": {"OBJECT_NAME": "SKYSAT-C1", "OBJECT_ID": "2016-040C", "EPOCH": "2025-12-24T00:22:30.388800", "MEAN_MOTION": 15.32785523, "ECCENTRICITY": 0.00010639, "INCLINATION": 96.9803, "RA_OF_ASC_NODE": 34.3932, "ARG_OF_PERICENTER": 330.1736, "MEAN_ANOMALY": 29.9446, "EPHEMERIS_TYPE": 0, "CLASSIFICATION_TYPE": "U", "NORAD_CAT_ID": 41601, "ELEMENT_SET_NO": 999, "REV_AT_EPOCH": 53100, "BSTAR": 0.00029648076, "MEAN_MOTION_DOT": 9.317e-05, "MEAN_MOTION_DDOT": 0}, "tle": {"line1": "1 41601U 16040C   25358.01562950  .00009317  00000+0  29648-3 0  9995", "line2": "2 41601  96.9803  34.3932 0001063 330.1736  29.9446 15.32785523531000"}}, "geometry": {"type": "Point", "coordinates": [45.39366606421834, -55.50445975067389]}}, {"type": "Feature", "properties": {"norad_id": 41603, "name": "LAPAN-A3", "group": "resource", "lat": 39.984040344355776, "lon": -10.13003482018576, "alt_km": 470.5069513979988, "timestamp": "2025-12-24T18:55:55.714510+00:00", "meta": {"OBJECT_NAME": "LAPAN-A3", "OBJECT_ID": "2016-040E", "EPOCH": "2025-12-24T06:12:46.073376", "MEAN_MOTION": 15.31643159, "ECCENTRICITY": 0.00086956, "INCLINATION": 97.1432, "RA_OF_ASC_NODE": 355.3962, "ARG_OF_PERICENTER": 286.0828, "MEAN_ANOMALY": 73.9457, "EPHEMERIS_TYPE": 0, "CLASSIFICATION_TYPE": "U", "NORAD_CAT_ID": 41603, "ELEMENT_SET_NO": 999, "REV_AT_EPOCH": 52802, "BSTAR": 0.00016048485, "MEAN_MOTION_DOT": 4.834e-05, "MEAN_MOTION_DDOT": 0}, "tle": {"line1": "1 41603U 16040E   25358.25886659  .00004834  00000+0  16048-3 0  9997", "line2": "2 41603  97.1432 355.3962 0008695 286.0828  73.9457 15.31643159528027"}}, "geometry": {"type": "Point", "coordinates": [-10.13003482018576, 39.984040344355776]}}, {"type": "Feature", "properties": {"norad_id": 41604, "name": "BIROS", "group": "resource", "lat": -38.61562024351956, "lon": 36.43201701427042, "alt_km": 298.7754636501659, "timestamp": "2025-12-24T18:55:55.714520+00:00", "meta": {"OBJECT_NAME": "BIROS", "OBJECT_ID": "2016-040F", "EPOCH": "2025-12-24T01:01:08.804064", "MEAN_MOTION": 15.94180536, "ECCENTRICITY": 0.00038271, "INCLINATION": 97.0659, "RA_OF_ASC_NODE": 29.9644, "ARG_OF_PERICENTER": 126.506, "MEAN_ANOMALY": 233.6569, "EPHEMERIS_TYPE": 0, "CLASSIFICATION_TYPE": "U", "NORAD_CAT_ID": 41604, "ELEMENT_SET_NO": 999, "REV_AT_EPOCH": 53052, "BSTAR": 0.00058835139, "MEAN_MOTION_DOT": 0.00216442, "MEAN_MOTION_DDOT": 1.9807916e-05}, "tle": {"line1": "1 41604U 16040F   25358.04246301  .00216442  19808-4  58835-3 0  9990", "line2": "2 41604  97.0659  29.9644 0003827 126.5060 233.6569 15.94180536530528"}}, "geometry": {"type": "Point", "coordinates": [36.43201701427042, -38.61562024351956]}}, {"type": "Feature", "properties": {"norad_id": 41727, "name": "GAOFEN-3", "group": "resource", "lat": -81.16370663573707, "lon": 112.2222690696349, "alt_km": 759.1994086775421, "timestamp": "2025-12-24T18:55:55.714530+00:00", "meta": {"OBJECT_NAME": "GAOFEN-3", "OBJECT_ID": "2016-049A", "EPOCH": "2025-12-24T07:42:22.018752", "MEAN_MOTION": 14.4221703, "ECCENTRICITY": 0.0001138, "INCLINATION": 98.4033, "RA_OF_ASC_NODE": 3.7305, "ARG_OF_PERICENTER": 55.3835, "MEAN_ANOMALY": 304.7462, "EPHEMERIS_TYPE": 0, "CLASSIFICATION_TYPE": "U", "NORAD_CAT_ID": 41727, "ELEMENT_SET_NO": 999, "REV_AT_EPOCH": 49344, "BSTAR": 0.00010534651, "MEAN_MOTION_DOT": 3.04e-06, "MEAN_MOTION_DDOT": 0}, "tle": {"line1": "1 41727U 16049A   25358.32108818  .00000304  00000+0  10535-3 0  9998", "line2": "2 41727  98.4033   3.7305 0001138  55.3835 304.7462 14.42217030493444"}}, "geometry": {"type": "Point", "coordinates": [112.2222690696349, -81.16370663573707]}}, {"type": "Feature", "properties": {"norad_id": 41771, "name": "SKYSAT-C4", "group": "resource", "lat": -59.208667220714176, "lon": 35.1799121290742, "alt_km": 447.3653517438888, "timestamp": "2025-12-24T18:55:55.714561+00:00", "meta": {"OBJECT_NAME": "SKYSAT-C4", "OBJECT_ID": "2016-058B", "EPOCH": "2025-12-24T00:30:33.239520", "MEAN_MOTION": 15.42560985, "ECCENTRICITY": 0.00024855, "INCLINATION": 96.9362, "RA_OF_ASC_NODE": 22.6612, "ARG_OF_PERICENTER": 124.561, "MEAN_ANOMALY": 235.5873, "EPHEMERIS_TYPE": 0, "CLASSIFICATION_TYPE": "U", "NORAD_CAT_ID": 41771, "ELEMENT_SET_NO": 999, "REV_AT_EPOCH": 51841, "BSTAR": 0.00034910713, "MEAN_MOTION_DOT": 0.00015093, "MEAN_MOTION_DDOT": 0}, "tle": {"line1": "1 41771U 16058B   25358.02121805  .00015093  00000+0  34911-3 0  9990", "line2": "2 41771  96.9362  22.6612 0002485 124.5610 235.5873 15.42560985518411"}}, "geometry": {"type": "Point", "coordinates": [35.1799121290742, -59.208667220714176]}}, {"type": "Feature", "properties": {"norad_id": 41772, "name": "SKYSAT-C5", "group": "resource", "lat": -33.718632440903775, "lon": -142.7176329234641, "alt_km": 467.396460771899, "timestamp": "2025-12-24T18:55:55.714572+00:00", "meta": {"OBJECT_NAME": "SKYSAT-C5", "OBJECT_ID": "2016-058C", "EPOCH": "2025-12-24T02:20:51.097632", "MEAN_MOTION": 15.34073712, "ECCENTRICITY": 0.00039198, "INCLINATION": 97.0739, "RA_OF_ASC_NODE": 41.3742, "ARG_OF_PERICENTER": 236.4499, "MEAN_ANOMALY": 123.6371, "EPHEMERIS_TYPE": 0, "CLASSIFICATION_TYPE": "U", "NORAD_CAT_ID": 41772, "ELEMENT_SET_NO": 999, "REV_AT_EPOCH": 51690, "BSTAR": 0.00028857368, "MEAN_MOTION_DOT": 9.444e-05, "MEAN_MOTION_DDOT": 0}, "tle": {"line1": "1 41772U 16058C   25358.09781363  .00009444  00000+0  28857-3 0  9994", "line2": "2 41772  97.0739  41.3742 0003919 236.4499 123.6371 15.34073712516905"}}, "geometry": {"type": "Point", "coordinates": [-142.7176329234641, -33.718632440903775]}}, {"type": "Feature", "properties": {"norad_id": 41773, "name": "SKYSAT-C2", "group": "resource", "lat": 7.6242311580184055, "lon": 21.858105739210785, "alt_km": 453.53055417245923, "timestamp": "2025-12-24T18:55:55.714582+00:00", "meta": {"OBJECT_NAME": "SKYSAT-C2", "OBJECT_ID": "2016-058D", "EPOCH": "2025-12-24T00:09:18.652032", "MEAN_MOTION": 15.37515699, "ECCENTRICITY": 0.00028906, "INCLINATION": 97.0347, "RA_OF_ASC_NODE": 22.0558, "ARG_OF_PERICENTER": 0.8016, "MEAN_ANOMALY": 359.3234, "EPHEMERIS_TYPE": 0, "CLASSIFICATION_TYPE": "U", "NORAD_CAT_ID": 41773, "ELEMENT_SET_NO": 999, "REV_AT_EPOCH": 51809, "BSTAR": 0.00032672099, "MEAN_MOTION_DOT": 0.00011953, "MEAN_MOTION_DDOT": 0}, "tle": {"line1": "1 41773U 16058D   25358.00646588  .00011953  00000+0  32672-3 0  9993", "line2": "2 41773  97.0347  22.0558 0002890   0.8016 359.3234 15.37515699518093"}}, "geometry": {"type": "Point", "coordinates": [21.858105739210785, 7.6242311580184055]}}, {"type": "Feature", "properties": {"norad_id": 41774, "name": "SKYSAT-C3", "group": "resource", "lat": 31.36884439190227, "lon": -143.7730008556119, "alt_km": 429.27271488799215, "timestamp": "2025-12-24T18:55:55.714592+00:00", "meta": {"OBJECT_NAME": "SKYSAT-C3", "OBJECT_ID": "2016-058E", "EPOCH": "2025-12-24T01:11:30.109920", "MEAN_MOTION": 15.44788034, "ECCENTRICITY": 0.00021094, "INCLINATION": 96.9281, "RA_OF_ASC_NODE": 31.2705, "ARG_OF_PERICENTER": 105.7361, "MEAN_ANOMALY": 254.4121, "EPHEMERIS_TYPE": 0, "CLASSIFICATION_TYPE": "U", "NORAD_CAT_ID": 41774, "ELEMENT_SET_NO": 999, "REV_AT_EPOCH": 51900, "BSTAR": 0.00040539837, "MEAN_MOTION_DOT": 0.00018915, "MEAN_MOTION_DDOT": 0}, "tle": {"line1": "1 41774U 16058E   25358.04965405  .00018915  00000+0  40540-3 0  9998", "line2": "2 41774  96.9281  31.2705 0002109 105.7361 254.4121 15.44788034519001"}}, "geometry": {"type": "Point", "coordinates": [-143.7730008556119, 31.36884439190227]}}]}